[{"OBJECT_NAME":"STARLINK-4761","OBJECT_ID":"2022-114N","EPOCH":"2026-03-09T21:17:31.927776","MEAN_MOTION":15.08837436,"ECCENTRICITY":0.00013243,"INCLINATION":53.2178,"RA_OF_ASC_NODE":303.0624,"ARG_OF_PERICENTER":85.6839,"MEAN_ANOMALY":274.4305,"EPHEMERIS_TYPE":0,"CLASSIFICATION_TYPE":"U","NORAD_CAT_ID":53830,"ELEMENT_SET_NO":999,"REV_AT_EPOCH":19286,"BSTAR":-0.00022674028,"MEAN_MOTION_DOT":-3.894e-5,"MEAN_MOTION_DDOT":0},{"OBJECT_NAME":"DISKSAT A","OBJECT_ID":"2025-305D","EPOCH":"2026-03-09T13:08:58.223040","MEAN_MOTION":15.07741062,"ECCENTRICITY":0.0004082,"INCLINATION":45.0023,"RA_OF_ASC_NODE":251.6019,"ARG_OF_PERICENTER":318.1929,"MEAN_ANOMALY":41.8634,"EPHEMERIS_TYPE":0,"CLASSIFICATION_TYPE":"U","NORAD_CAT_ID":67222,"ELEMENT_SET_NO":999,"REV_AT_EPOCH":1226,"BSTAR":0.00090452,"MEAN_MOTION_DOT":0.00013824,"MEAN_MOTION_DDOT":0}]
